      2.10          N: GNSS NAV DATA                        RINEX VERSION / TYPE
fic2rin                                 06/06/2021 00:17:14 PGM / RUN BY / DATE
                                                            END OF HEADER
25 21  6  5 14  0  0.0 1.503662206233e-04 6.934897101019e-12 0.000000000000e+00
    5.300000000000e+01 6.453125000000e+01 4.816986361103e-09-2.348872741738e+00
    3.276392817497e-06 9.868797031231e-03 4.077330231667e-06 5.153620483398e+03
    5.688000000000e+05 2.030283212662e-07 6.115995632567e-01 1.117587089539e-08
    9.610687120495e-01 3.007812500000e+02 9.722778610127e-01-8.224628303067e-09
    3.035840740667e-10 1.000000000000e+00 2.160000000000e+03 0.000000000000e+00
    2.400000000000e+00 0.000000000000e+00 5.587935447693e-09 5.300000000000e+01
    5.616000000000e+05 4.000000000000e+00
24 21  6  5 14  0  0.0 1.172893680632e-04 1.921307557495e-11 0.000000000000e+00
    7.000000000000e+01 3.571875000000e+01 5.041638575912e-09-3.771490554177e-01
    2.037733793259e-06 1.111107040197e-02 1.024268567562e-05 5.153733207703e+03
    5.688000000000e+05 6.332993507385e-08-5.033935328412e-01 1.396983861923e-07
    9.351766668676e-01 1.725625000000e+02 7.407195641602e-01-8.365705608075e-09
    2.392956819114e-11 1.000000000000e+00 2.160000000000e+03 0.000000000000e+00
    2.400000000000e+00 0.000000000000e+00 2.793967723846e-09 7.000000000000e+01
    5.616000000000e+05 4.000000000000e+00
18 21  6  5 14  0  0.0 3.480566665530e-04-1.591615728103e-12 0.000000000000e+00
    5.000000000000e+01-2.078125000000e+01 4.077312693582e-09-4.195800141517e-01
   -1.212581992149e-06 1.476448145695e-03 1.017749309540e-05 5.153664150238e+03
    5.688000000000e+05 2.793967723846e-08 2.730313142993e+00-6.146728992462e-08
    9.684429514676e-01 1.908437500000e+02 2.889446884695e+00-7.798896283906e-09
    4.285892810353e-12 1.000000000000e+00 2.160000000000e+03 0.000000000000e+00
    2.400000000000e+00 0.000000000000e+00-8.381903171539e-09 5.000000000000e+01
    5.616000000000e+05 4.000000000000e+00
17 21  6  5 14  0  0.0 4.537138156593e-04 5.911715561524e-12 0.000000000000e+00
    3.200000000000e+01-6.912500000000e+01 4.148387082688e-09 1.478531960459e+00
   -3.909692168236e-06 1.334617764223e-02 6.044283509254e-06 5.153608667374e+03
    5.688000000000e+05-2.607703208923e-08 1.721689189094e+00-3.539025783539e-07
    9.818320019753e-01 2.762187500000e+02-1.566553928733e+00-8.015691028563e-09
   -3.739441477033e-10 1.000000000000e+00 2.160000000000e+03 0.000000000000e+00
    2.400000000000e+00 0.000000000000e+00-1.117587089539e-08 3.200000000000e+01
    5.616000000000e+05 4.000000000000e+00
20 21  6  5 14  0  0.0 5.214717239141e-04-3.410605131648e-13 0.000000000000e+00
    9.300000000000e+01 1.834375000000e+01 5.183787354122e-09-2.460144861194e-01
    8.679926395416e-07 6.074796081521e-03 6.243586540222e-06 5.151727022171e+03
    5.688000000000e+05 1.396983861923e-07-2.673617060871e+00-2.048909664154e-08
    9.385211462929e-01 2.502812500000e+02 3.036523609614e+00-8.509283017222e-09
    2.735828243942e-10 1.000000000000e+00 2.160000000000e+03 0.000000000000e+00
    2.400000000000e+00 0.000000000000e+00-8.381903171539e-09 9.300000000000e+01
    5.616000000000e+05 4.000000000000e+00
23 21  6  5 14  0  0.0 1.000375486910e-04-3.865352482535e-12 0.000000000000e+00
    6.300000000000e+01 1.253125000000e+01 4.470543358932e-09-1.133199149630e+00
    7.599592208862e-07 1.239700475708e-03 6.036832928658e-06 5.153650035858e+03
    5.688000000000e+05-8.195638656616e-08-2.553868450278e+00 9.313225746155e-09
    9.644425624811e-01 2.666250000000e+02 2.602414482655e+00-8.042120700893e-09
    2.764400862678e-10 1.000000000000e+00 2.160000000000e+03 0.000000000000e+00
    2.400000000000e+00 0.000000000000e+00-8.381903171539e-09 3.190000000000e+02
    5.616000000000e+05 4.000000000000e+00
14 21  6  5 14  0  0.0 7.467204704881e-05-6.707523425575e-12 0.000000000000e+00
    1.950000000000e+02 6.034375000000e+01 4.947706091818e-09-1.816702220505e+00
    3.088265657425e-06 7.701126160100e-04 4.375353455544e-06 5.153750997543e+03
    5.688000000000e+05-3.352761268616e-08 6.579117972614e-01-4.842877388000e-08
    9.571668579102e-01 2.959062500000e+02 2.775560483818e+00-8.408207378444e-09
    1.707213969457e-10 1.000000000000e+00 2.160000000000e+03 0.000000000000e+00
    2.400000000000e+00 0.000000000000e+00-7.916241884232e-09 7.070000000000e+02
    5.616000000000e+05 4.000000000000e+00
 2 21  6  5 16  0  0.0-6.100269965827e-04-2.955857780762e-12 0.000000000000e+00
    2.300000000000e+01-3.912500000000e+01 4.403040547169e-09 5.883746956878e-01
   -2.061948180199e-06 2.017467236146e-02 1.058354973793e-05 5.153693191528e+03
    5.760000000000e+05-2.421438694000e-07 2.634675663537e+00-9.685754776001e-08
    9.633345439391e-01 1.850625000000e+02-1.514510059229e+00-8.308203212869e-09
   -3.321566928024e-11 1.000000000000e+00 2.160000000000e+03 0.000000000000e+00
    2.400000000000e+00 0.000000000000e+00-1.769512891769e-08 2.300000000000e+01
    5.688000000000e+05 4.000000000000e+00
 1 21  6  5 16  0  0.0 6.677266210318e-04-1.170974428533e-11 0.000000000000e+00
    8.600000000000e+01-1.506250000000e+01 3.932663811233e-09 3.084504721545e-01
   -6.034970283508e-07 1.097004825715e-02 9.961426258087e-06 5.153684597015e+03
    5.760000000000e+05-7.450580596924e-08 2.718657837663e+00 1.788139343262e-07
    9.847286748619e-01 1.980312500000e+02 8.529702953508e-01-7.864613306998e-09
    2.392956819114e-11 1.000000000000e+00 2.160000000000e+03 0.000000000000e+00
    2.400000000000e+00 0.000000000000e+00 5.122274160385e-09 8.600000000000e+01
    5.688000000000e+05 4.000000000000e+00
 3 21  6  5 16  0  0.0-1.836470328271e-04-1.057287590811e-11 0.000000000000e+00
    2.600000000000e+01 6.531250000000e+00 4.577690679191e-09-7.351714634366e-01
    2.384185791016e-07 3.559199976735e-03 5.757436156273e-06 5.153579374313e+03
    5.760000000000e+05 3.725290298462e-08-2.527522654721e+00 6.146728992462e-08
    9.695587366417e-01 2.720000000000e+02 8.474145040670e-01-8.149625178886e-09
    1.428630936784e-10 1.000000000000e+00 2.160000000000e+03 0.000000000000e+00
    2.400000000000e+00 0.000000000000e+00 1.862645149231e-09 2.600000000000e+01
    5.688000000000e+05 4.000000000000e+00
28 21  6  5 16  0  0.0 5.596233531833e-04-6.252776074689e-12 0.000000000000e+00
    6.000000000000e+00 5.737500000000e+01 4.535188908822e-09 3.067076106568e+00
    2.825632691383e-06 1.749960635789e-02 3.570690751076e-06 5.153731569290e+03
    5.760000000000e+05 2.924352884293e-07 7.074400650212e-01 1.229345798492e-07
    9.728239171295e-01 3.136250000000e+02-1.348010965336e+00-7.976046520067e-09
    1.810789712374e-10 1.000000000000e+00 2.160000000000e+03 0.000000000000e+00
    2.400000000000e+00 0.000000000000e+00-1.117587089539e-08 6.000000000000e+00
    5.688000000000e+05 4.000000000000e+00
16 21  6  5 16  0  0.0-3.365240991116e-04-6.025402399246e-12 0.000000000000e+00
    2.300000000000e+01 5.409375000000e+01 4.500187450871e-09-2.856591115389e+00
    2.581626176834e-06 1.218772679567e-02 3.848224878311e-06 5.153705823898e+03
    5.760000000000e+05 0.000000000000e+00 7.038717488893e-01-2.682209014893e-07
    9.737330739024e-01 3.145000000000e+02 6.799670252531e-01-8.033191757538e-09
    1.917937032633e-10 1.000000000000e+00 2.160000000000e+03 0.000000000000e+00
    2.400000000000e+00 0.000000000000e+00-1.024454832077e-08 2.300000000000e+01
    5.688000000000e+05 4.000000000000e+00
10 21  6  5 16  0  0.0-1.363372430205e-04-7.617018127348e-12 0.000000000000e+00
    1.600000000000e+01 1.125000000000e+01 4.389111395536e-09-1.712052260134e+00
    5.755573511124e-07 6.651120493189e-03 6.172806024551e-06 5.153669895172e+03
    5.760000000000e+05 3.911554813385e-08-2.530401226922e+00-1.247972249985e-07
    9.694365610383e-01 2.674687500000e+02-2.563937359928e+00-7.935687696103e-09
    2.457245211269e-10 1.000000000000e+00 2.160000000000e+03 0.000000000000e+00
    2.400000000000e+00 0.000000000000e+00 2.328306436539e-09 1.600000000000e+01
    5.688000000000e+05 4.000000000000e+00
 8 21  6  5 16  0  0.0-2.394709736109e-05-1.477928890381e-12 0.000000000000e+00
    1.700000000000e+01-5.478125000000e+01 4.618049503155e-09 2.562157449445e+00
   -2.790242433548e-06 6.348183262162e-03 5.690380930901e-06 5.153606033325e+03
    5.760000000000e+05-1.806765794754e-07 1.643483022236e+00 7.636845111847e-08
    9.670296204595e-01 2.745312500000e+02 5.542333315286e-02-8.110694985859e-09
   -2.346526313668e-10 1.000000000000e+00 2.160000000000e+03 0.000000000000e+00
    2.400000000000e+00 0.000000000000e+00 5.122274160385e-09 1.700000000000e+01
    5.688000000000e+05 4.000000000000e+00
 5 21  6  5 16  0  0.0-4.405621439219e-05-1.136868377216e-12 0.000000000000e+00
    6.200000000000e+01 1.293750000000e+01 4.771627328860e-09 3.003739941688e+00
    6.239861249924e-07 6.109259440564e-03 6.116926670074e-06 5.153882534027e+03
    5.760000000000e+05 2.421438694000e-08-2.564490225929e+00-5.401670932770e-08
    9.565419314909e-01 2.585312500000e+02 9.008591044662e-01-8.112837932264e-09
    2.542963067476e-10 1.000000000000e+00 2.160000000000e+03 0.000000000000e+00
    2.400000000000e+00 0.000000000000e+00-1.117587089539e-08 6.200000000000e+01
    5.688000000000e+05 4.000000000000e+00
 4 21  6  5 16  0  0.0-1.988988369703e-04-1.250555214938e-12 0.000000000000e+00
    1.750000000000e+02-3.453125000000e+01 4.551261006861e-09 1.932042959447e+00
   -1.784414052963e-06 1.256491173990e-03 7.806345820427e-06 5.153735029221e+03
    5.760000000000e+05-7.450580596924e-09-1.446747202257e+00-5.587935447693e-09
    9.600591742268e-01 2.293125000000e+02-2.923074760220e+00-8.004261981068e-09
   -3.503717372464e-10 1.000000000000e+00 2.160000000000e+03 0.000000000000e+00
    2.400000000000e+00 0.000000000000e+00-4.190951585770e-09 1.750000000000e+02
    5.688000000000e+05 4.000000000000e+00
